{
  "type": "FeatureCollection",
  "features": [
    {
      "type": "Feature",
      "properties": {
        "norad_id": 31151,
        "name": "FENGYUN 1C DEB",
        "group": "fengyun-1c-debris",
        "lat": -67.00966539951547,
        "lon": 4.705404690254491,
        "alt_km": 834.1603602728255,
        "timestamp": "2025-12-03T08:58:46.282251+00:00",
        "meta_object_name": "FENGYUN 1C DEB",
        "meta_object_id": "1999-025BHD",
        "meta_epoch": "2025-12-02T11:24:15.667776",
        "meta_mean_motion": 14.2562356,
        "meta_eccentricity": 0.00569222,
        "meta_inclination": 99.1347,
        "meta_ra_of_asc_node": 341.4833,
        "meta_arg_of_pericenter": 54.3348,
        "meta_mean_anomaly": 306.3111,
        "meta_ephemeris_type": 0,
        "meta_classification_type": "U",
        "meta_norad_cat_id": 31151,
        "meta_element_set_no": 999,
        "meta_rev_at_epoch": 95828,
        "meta_bstar": 0.0027697832,
        "meta_mean_motion_dot": 6.632e-05,
        "meta_mean_motion_ddot": 0,
        "tle_line1": "1 31151U 99025BHD 25336.47518134  .00006632  00000+0  27698-2 0  9998",
        "tle_line2": "2 31151  99.1347 341.4833 0056922  54.3348 306.3111 14.25623560958284"
      },
      "geometry": {
        "type": "Point",
        "coordinates": [
          4.705404690254491,
          -67.00966539951547
        ]
      }
    },
    {
      "type": "Feature",
      "properties": {
        "norad_id": 31152,
        "name": "FENGYUN 1C DEB",
        "group": "fengyun-1c-debris",
        "lat": 34.1534231884444,
        "lon": -41.56524016175141,
        "alt_km": 686.1937077414386,
        "timestamp": "2025-12-03T08:58:46.282261+00:00",
        "meta_object_name": "FENGYUN 1C DEB",
        "meta_object_id": "1999-025BHE",
        "meta_epoch": "2025-12-02T19:58:52.180896",
        "meta_mean_motion": 14.35836522,
        "meta_eccentricity": 0.0130573,
        "meta_inclination": 98.4134,
        "meta_ra_of_asc_node": 323.6687,
        "meta_arg_of_pericenter": 62.7053,
        "meta_mean_anomaly": 54.7116,
        "meta_ephemeris_type": 0,
        "meta_classification_type": "U",
        "meta_norad_cat_id": 31152,
        "meta_element_set_no": 999,
        "meta_rev_at_epoch": 97906,
        "meta_bstar": 0.00014616,
        "meta_mean_motion_dot": 4.21e-06,
        "meta_mean_motion_ddot": 0,
        "tle_line1": "1 31152U 99025BHE 25336.83254839  .00000421  00000+0  14616-3 0  9995",
        "tle_line2": "2 31152  98.4134 323.6687 0130573  62.7053  54.7116 14.35836522979064"
      },
      "geometry": {
        "type": "Point",
        "coordinates": [
          -41.56524016175141,
          34.1534231884444
        ]
      }
    },
    {
      "type": "Feature",
      "properties": {
        "norad_id": 31155,
        "name": "FENGYUN 1C DEB",
        "group": "fengyun-1c-debris",
        "lat": 27.408506225545384,
        "lon": -128.9822253614849,
        "alt_km": 898.5573626054274,
        "timestamp": "2025-12-03T08:58:46.282272+00:00",
        "meta_object_name": "FENGYUN 1C DEB",
        "meta_object_id": "1999-025BHH",
        "meta_epoch": "2025-11-30T22:17:26.033856",
        "meta_mean_motion": 14.08251839,
        "meta_eccentricity": 0.00893555,
        "meta_inclination": 99.0428,
        "meta_ra_of_asc_node": 43.8309,
        "meta_arg_of_pericenter": 36.3859,
        "meta_mean_anomaly": 324.334,
        "meta_ephemeris_type": 0,
        "meta_classification_type": "U",
        "meta_norad_cat_id": 31155,
        "meta_element_set_no": 999,
        "meta_rev_at_epoch": 95421,
        "meta_bstar": 0.0012635764,
        "meta_mean_motion_dot": 2.195e-05,
        "meta_mean_motion_ddot": 0,
        "tle_line1": "1 31155U 99025BHH 25334.92877354  .00002195  00000+0  12636-2 0  9998",
        "tle_line2": "2 31155  99.0428  43.8309 0089355  36.3859 324.3340 14.08251839954211"
      },
      "geometry": {
        "type": "Point",
        "coordinates": [
          -128.9822253614849,
          27.408506225545384
        ]
      }
    },
    {
      "type": "Feature",
      "properties": {
        "norad_id": 31157,
        "name": "FENGYUN 1C DEB",
        "group": "fengyun-1c-debris",
        "lat": -28.204820433394154,
        "lon": -34.17328385016595,
        "alt_km": 755.4541264424524,
        "timestamp": "2025-12-03T08:58:46.282282+00:00",
        "meta_object_name": "FENGYUN 1C DEB",
        "meta_object_id": "1999-025BHK",
        "meta_epoch": "2025-11-30T18:39:07.604640",
        "meta_mean_motion": 14.22530915,
        "meta_eccentricity": 0.01006996,
        "meta_inclination": 98.4764,
        "meta_ra_of_asc_node": 318.7411,
        "meta_arg_of_pericenter": 1.4873,
        "meta_mean_anomaly": 358.6586,
        "meta_ephemeris_type": 0,
        "meta_classification_type": "U",
        "meta_norad_cat_id": 31157,
        "meta_element_set_no": 999,
        "meta_rev_at_epoch": 96813,
        "meta_bstar": 0.00031330561,
        "meta_mean_motion_dot": 6.94e-06,
        "meta_mean_motion_ddot": 0,
        "tle_line1": "1 31157U 99025BHK 25334.77717135  .00000694  00000+0  31331-3 0  9999",
        "tle_line2": "2 31157  98.4764 318.7411 0100699   1.4873 358.6586 14.22530915968130"
      },
      "geometry": {
        "type": "Point",
        "coordinates": [
          -34.17328385016595,
          -28.204820433394154
        ]
      }
    },
    {
      "type": "Feature",
      "properties": {
        "norad_id": 31158,
        "name": "FENGYUN 1C DEB",
        "group": "fengyun-1c-debris",
        "lat": 34.07206461264591,
        "lon": -118.0982569874398,
        "alt_km": 774.4561884642508,
        "timestamp": "2025-12-03T08:58:46.282292+00:00",
        "meta_object_name": "FENGYUN 1C DEB",
        "meta_object_id": "1999-025BHL",
        "meta_epoch": "2025-12-01T22:47:41.317728",
        "meta_mean_motion": 14.33065926,
        "meta_eccentricity": 0.00482848,
        "meta_inclination": 98.7835,
        "meta_ra_of_asc_node": 54.4553,
        "meta_arg_of_pericenter": 67.2099,
        "meta_mean_anomaly": 293.4175,
        "meta_ephemeris_type": 0,
        "meta_classification_type": "U",
        "meta_norad_cat_id": 31158,
        "meta_element_set_no": 999,
        "meta_rev_at_epoch": 64325,
        "meta_bstar": 0.0019469313,
        "meta_mean_motion_dot": 5.364e-05,
        "meta_mean_motion_ddot": 0,
        "tle_line1": "1 31158U 99025BHL 25335.94978377  .00005364  00000+0  19469-2 0  9993",
        "tle_line2": "2 31158  98.7835  54.4553 0048284  67.2099 293.4175 14.33065926643255"
      },
      "geometry": {
        "type": "Point",
        "coordinates": [
          -118.0982569874398,
          34.07206461264591
        ]
      }
    },
    {
      "type": "Feature",
      "properties": {
        "norad_id": 31159,
        "name": "FENGYUN 1C DEB",
        "group": "fengyun-1c-debris",
        "lat": 18.666207134325973,
        "lon": -66.24325796275849,
        "alt_km": 385.01736672412335,
        "timestamp": "2025-12-03T08:58:46.282303+00:00",
        "meta_object_name": "FENGYUN 1C DEB",
        "meta_object_id": "1999-025BHM",
        "meta_epoch": "2025-12-01T03:44:51.470592",
        "meta_mean_motion": 15.36051603,
        "meta_eccentricity": 0.01187409,
        "meta_inclination": 97.7974,
        "meta_ra_of_asc_node": 294.0605,
        "meta_arg_of_pericenter": 53.757,
        "meta_mean_anomaly": 307.4576,
        "meta_ephemeris_type": 0,
        "meta_classification_type": "U",
        "meta_norad_cat_id": 31159,
        "meta_element_set_no": 999,
        "meta_rev_at_epoch": 99375,
        "meta_bstar": 0.0015029289,
        "meta_mean_motion_dot": 0.00067184,
        "meta_mean_motion_ddot": 0,
        "tle_line1": "1 31159U 99025BHM 25335.15615128  .00067184  00000+0  15029-2 0  9995",
        "tle_line2": "2 31159  97.7974 294.0605 0118740  53.7570 307.4576 15.36051603993753"
      },
      "geometry": {
        "type": "Point",
        "coordinates": [
          -66.24325796275849,
          18.666207134325973
        ]
      }
    },
    {
      "type": "Feature",
      "properties": {
        "norad_id": 31160,
        "name": "FENGYUN 1C DEB",
        "group": "fengyun-1c-debris",
        "lat": -60.104519654998846,
        "lon": 49.8887494496529,
        "alt_km": 862.8222377521952,
        "timestamp": "2025-12-03T08:58:46.282313+00:00",
        "meta_object_name": "FENGYUN 1C DEB",
        "meta_object_id": "1999-025BHN",
        "meta_epoch": "2025-12-02T21:15:36.620064",
        "meta_mean_motion": 13.99587015,
        "meta_eccentricity": 0.0056563,
        "meta_inclination": 99.0872,
        "meta_ra_of_asc_node": 33.2408,
        "meta_arg_of_pericenter": 283.6092,
        "meta_mean_anomaly": 75.8776,
        "meta_ephemeris_type": 0,
        "meta_classification_type": "U",
        "meta_norad_cat_id": 31160,
        "meta_element_set_no": 999,
        "meta_rev_at_epoch": 69461,
        "meta_bstar": 0.00025456,
        "meta_mean_motion_dot": 3.32e-06,
        "meta_mean_motion_ddot": 0,
        "tle_line1": "1 31160U 99025BHN 25336.88584051  .00000332  00000+0  25456-3 0  9996",
        "tle_line2": "2 31160  99.0872  33.2408 0056563 283.6092  75.8776 13.99587015694617"
      },
      "geometry": {
        "type": "Point",
        "coordinates": [
          49.8887494496529,
          -60.104519654998846
        ]
      }
    }
  ]
}